SAR-LUPE 2              
1 31797U 07030A   26185.24595874  .00043056  00000+0  69577-3 0  9997
2 31797  98.1059 291.8278 0003447 223.2821 136.8160 15.52742017 59582
SAPPHIRE                
1 39088U 13009C   26185.24199982  .00000127  00000+0  59362-4 0  9995
2 39088  98.4269   4.2933 0010891 192.1980 167.8944 14.35245355699020
PRAETORIAN SDA_602      
1 65565U 25203A   26185.22881401  .00000116  00000+0  94120-4 0  9994
2 65565  81.3033 354.9870 0006714 143.3093 216.8525 13.83887393 41056
PRAETORIAN SDA_603      
1 65566U 25203B   26185.18538909  .00000112  00000+0  90527-4 0  9995
2 65566  81.3043 354.9498 0010371 142.0049 218.1841 13.83961104 41054
PRAETORIAN SDA_604      
1 65567U 25203C   26185.21570131  .00000076  00000+0  58782-4 0  9999
2 65567  81.3057 355.3598 0006178 146.9042 213.2501 13.83049410 41036
PRAETORIAN SDA_605      
1 65568U 25203D   26183.87446639  .00000022  00000+0  92536-5 0  9992
2 65568  81.3021 356.2472 0008905 142.0754 218.1031 13.83435094 40865
PRAETORIAN SDA_606      
1 65569U 25203E   26185.23408947  .00000060  00000+0  43854-4 0  9995
2 65569  81.3059 355.2240 0006819 141.7184 218.4458 13.83199366 41040
PRAETORIAN SDA_607      
1 65570U 25203F   26185.22888773  .00001666  00000+0  14850-2 0  9990
2 65570  81.3068 354.8617 0010189 136.1524 224.0443 13.84124605 41060
PRAETORIAN SDA_608      
1 65571U 25203G   26185.21187479  .00000089  00000+0  69656-4 0  9999
2 65571  81.3011 355.0445 0006677 146.0277 214.1308 13.83818731 41040
PRAETORIAN SDA_609      
1 65572U 25203H   26185.21196175  .00000199  00000+0  16782-3 0  9996
2 65572  81.3052 355.0247 0007597 140.9914 219.1792 13.84211369 41057
PRAETORIAN SDA_610      
1 65573U 25203J   26184.75837928  .00000059  00000+0  42855-4 0  9999
2 65573  81.3011 355.4238 0007434 146.8579 213.3044 13.83769204 40981
PRAETORIAN SDA_611      
1 65574U 25203K   26184.90932917  .00000211  00000+0  18155-3 0  9996
2 65574  81.3019 355.4610 0006207 150.1313 210.0198 13.83310892 40995
PRAETORIAN SDA_612      
1 65575U 25203L   26185.16703270  .00000200  00000+0  16585-3 0  9997
2 65575  81.3030 354.7673 0009903 142.4208 217.7643 13.85041377 41062
PRAETORIAN SDA_613      
1 65576U 25203M   26185.21208005  .00000093  00000+0  74842-4 0  9991
2 65576  81.3003 355.1915 0006438 140.2274 219.9355 13.82767011 41034
PRAETORIAN SDA_614      
1 65577U 25203N   26185.23167009  .00000021  00000+0  76795-5 0  9993
2 65577  81.3017 354.7897 0007903 139.2732 220.9017 13.84778251 41070
PRAETORIAN SDA_615      
1 65578U 25203P   26185.21275488  .00000199  00000+0  16730-3 0  9990
2 65578  81.3027 354.7821 0009780 140.5090 219.6782 13.84438232 41061
PRAETORIAN SDA_616      
1 65579U 25203Q   26185.19837016  .00000195  00000+0  16707-3 0  9999
2 65579  81.3068 355.3508 0006151 147.7302 212.4232 13.83269521 41030
PRAETORIAN SDA_617      
1 65580U 25203R   26184.93207352  .00000056  00000+0  40361-4 0  9996
2 65580  81.3040 355.4264 0008143 140.5775 219.5975 13.83151320 41006
PRAETORIAN SDA_618      
1 65581U 25203S   26185.17841220  .00000211  00000+0  17817-3 0  9994
2 65581  81.3023 354.7419 0010522 144.1834 216.0030 13.84225762 41065
PRAETORIAN SDA_619      
1 65582U 25203T   26184.93326948  .00000103  00000+0  82227-4 0  9991
2 65582  81.3046 355.2879 0008957 141.8796 218.2996 13.83806624 41647
PRAETORIAN SDA_620      
1 65583U 25203U   26185.18081505  .00000184  00000+0  15707-3 0  9994
2 65583  81.3032 355.0822 0008367 137.9473 222.2327 13.83304774 41048
PRAETORIAN SDA_621      
1 65584U 25203V   26185.22430706  .00000085  00000+0  66047-4 0  9995
2 65584  81.3025 354.9530 0008203 135.0434 225.1389 13.83803139 41050
PRAETORIAN SDA_601      
1 65585U 25203W   26185.20273567  .00000177  00000+0  15031-3 0  9992
2 65585  81.3047 355.2877 0006186 150.9349 209.2153 13.83169221 41039
VICTUS HAZE PUMA        
1 69646U 26142A   26185.32305925  .00005950  00000+0  27139-3 0  9990
2 69646  97.4476  82.7525 0025701 306.5862  53.3008 15.20716379  2275
