OBJECT_NAME,OBJECT_ID,EPOCH,MEAN_MOTION,ECCENTRICITY,INCLINATION,RA_OF_ASC_NODE,ARG_OF_PERICENTER,MEAN_ANOMALY,EPHEMERIS_TYPE,CLASSIFICATION_TYPE,NORAD_CAT_ID,ELEMENT_SET_NO,REV_AT_EPOCH,BSTAR,MEAN_MOTION_DOT,MEAN_MOTION_DDOT
SAR-LUPE 2,2007-030A,2026-07-04T05:54:10.835136,15.52742017,.00034476,98.1059,291.8278,223.2821,136.8160,0,U,31797,999,5958,.69577261E-3,.43056E-3,0
SAPPHIRE,2013-009C,2026-07-04T05:48:28.784448,14.35245355,.00108915,98.4269,4.2933,192.1980,167.8944,0,U,39088,999,69902,.59362376E-4,.127E-5,0
PRAETORIAN SDA_602,2025-203A,2026-07-04T05:29:29.530464,13.83887393,.0006714,81.3033,354.9870,143.3093,216.8525,0,U,65565,999,4105,.9412001E-4,.116E-5,0
PRAETORIAN SDA_603,2025-203B,2026-07-04T04:26:57.617376,13.83961104,.00103712,81.3043,354.9498,142.0049,218.1841,0,U,65566,999,4105,.90526671E-4,.112E-5,0
PRAETORIAN SDA_604,2025-203C,2026-07-04T05:10:36.593184,13.83049410,.00061789,81.3057,355.3598,146.9042,213.2501,0,U,65567,999,4103,.5878189E-4,.76E-6,0
PRAETORIAN SDA_605,2025-203D,2026-07-02T20:59:13.896096,13.83435094,.0008905,81.3021,356.2472,142.0754,218.1031,0,U,65568,999,4086,.9253594E-5,.22E-6,0
PRAETORIAN SDA_606,2025-203E,2026-07-04T05:37:05.330208,13.83199366,.00068199,81.3059,355.2240,141.7184,218.4458,0,U,65569,999,4104,.43854042E-4,.6E-6,0
PRAETORIAN SDA_607,2025-203F,2026-07-04T05:29:35.899872,13.84124605,.00101897,81.3068,354.8617,136.1524,224.0443,0,U,65570,999,4106,.14850086E-2,.1666E-4,0
PRAETORIAN SDA_608,2025-203G,2026-07-04T05:05:05.981856,13.83818731,.00066776,81.3011,355.0445,146.0277,214.1308,0,U,65571,999,4104,.69655668E-4,.89E-6,0
PRAETORIAN SDA_609,2025-203H,2026-07-04T05:05:13.495200,13.84211369,.00075976,81.3052,355.0247,140.9914,219.1792,0,U,65572,999,4105,.16782469E-3,.199E-5,0
PRAETORIAN SDA_610,2025-203J,2026-07-03T18:12:03.969792,13.83769204,.00074344,81.3011,355.4238,146.8579,213.3044,0,U,65573,999,4098,.42854532E-4,.59E-6,0
PRAETORIAN SDA_611,2025-203K,2026-07-03T21:49:26.040288,13.83310892,.00062076,81.3019,355.4610,150.1313,210.0198,0,U,65574,999,4099,.18154522E-3,.211E-5,0
PRAETORIAN SDA_612,2025-203L,2026-07-04T04:00:31.625280,13.85041377,.00099031,81.3030,354.7673,142.4208,217.7643,0,U,65575,999,4106,.16585424E-3,.2E-5,0
PRAETORIAN SDA_613,2025-203M,2026-07-04T05:05:23.716320,13.82767011,.00064383,81.3003,355.1915,140.2274,219.9355,0,U,65576,999,4103,.74842151E-4,.93E-6,0
PRAETORIAN SDA_614,2025-203N,2026-07-04T05:33:36.295776,13.84778251,.0007903,81.3017,354.7897,139.2732,220.9017,0,U,65577,999,4107,.7679477E-5,.21E-6,0
PRAETORIAN SDA_615,2025-203P,2026-07-04T05:06:22.021632,13.84438232,.00097808,81.3027,354.7821,140.5090,219.6782,0,U,65578,999,4106,.16729921E-3,.199E-5,0
PRAETORIAN SDA_616,2025-203Q,2026-07-04T04:45:39.181824,13.83269521,.0006151,81.3068,355.3508,147.7302,212.4232,0,U,65579,999,4103,.1670671E-3,.195E-5,0
PRAETORIAN SDA_617,2025-203R,2026-07-03T22:22:11.152128,13.83151320,.00081435,81.3040,355.4264,140.5775,219.5975,0,U,65580,999,4100,.40361016E-4,.56E-6,0
PRAETORIAN SDA_618,2025-203S,2026-07-04T04:16:54.814080,13.84225762,.00105227,81.3023,354.7419,144.1834,216.0030,0,U,65581,999,4106,.17816759E-3,.211E-5,0
PRAETORIAN SDA_619,2025-203T,2026-07-03T22:23:54.483072,13.83806624,.00089574,81.3046,355.2879,141.8796,218.2996,0,U,65582,999,4164,.82227261E-4,.103E-5,0
PRAETORIAN SDA_620,2025-203U,2026-07-04T04:20:22.420320,13.83304774,.00083679,81.3032,355.0822,137.9473,222.2327,0,U,65583,999,4104,.15707067E-3,.184E-5,0
PRAETORIAN SDA_621,2025-203V,2026-07-04T05:23:00.129984,13.83803139,.00082038,81.3025,354.9530,135.0434,225.1389,0,U,65584,999,4105,.66047015E-4,.85E-6,0
PRAETORIAN SDA_601,2025-203W,2026-07-04T04:51:56.361888,13.83169221,.00061864,81.3047,355.2877,150.9349,209.2153,0,U,65585,999,4103,.15030936E-3,.177E-5,0
VICTUS HAZE PUMA,2026-142A,2026-07-04T07:45:12.319200,15.20716379,.00257016,97.4476,82.7525,306.5862,53.3008,0,U,69646,999,227,.27139306E-3,.595E-4,0
